[{"OBJECT_NAME":"FLOCK 4Q-9","OBJECT_ID":"2023-174BU","EPOCH":"2026-03-09T18:14:26.529792","MEAN_MOTION":15.44691322,"ECCENTRICITY":0.0008057,"INCLINATION":97.3895,"RA_OF_ASC_NODE":155.2137,"ARG_OF_PERICENTER":139.6631,"MEAN_ANOMALY":220.5217,"EPHEMERIS_TYPE":0,"CLASSIFICATION_TYPE":"U","NORAD_CAT_ID":58322,"ELEMENT_SET_NO":999,"REV_AT_EPOCH":13021,"BSTAR":0.00055840083,"MEAN_MOTION_DOT":0.00026044,"MEAN_MOTION_DDOT":0},{"OBJECT_NAME":"SL-3 R\/B","OBJECT_ID":"1983-010B","EPOCH":"2026-03-09T21:22:10.613568","MEAN_MOTION":15.46365595,"ECCENTRICITY":0.00179542,"INCLINATION":81.106,"RA_OF_ASC_NODE":2.0014,"ARG_OF_PERICENTER":50.5381,"MEAN_ANOMALY":309.7449,"EPHEMERIS_TYPE":0,"CLASSIFICATION_TYPE":"U","NORAD_CAT_ID":13819,"ELEMENT_SET_NO":999,"REV_AT_EPOCH":35797,"BSTAR":0.00039060768,"MEAN_MOTION_DOT":0.00019461,"MEAN_MOTION_DDOT":0}]
